ONEWEB-0632             
1 56073U 23043AD  25345.23183310  .00000083  00000+0  18724-3 0  9998
2 56073  87.8987 296.7245 0001933  83.4046 276.7304 13.15549491131710
ONEWEB-0633             
1 56074U 23043AE  25345.30156073  .00000108  00000+0  25152-3 0  9994
2 56074  87.8984 296.6738 0001985  68.0269 292.1072 13.15549011131708
ONEWEB-0634             
1 56075U 23043AF  25345.28729921 -.00000048  00000+0 -16079-3 0  9993
2 56075  87.8995 296.7262 0001536  72.9482 287.1817 13.15549636131699
ONEWEB-0635             
1 56076U 23043AG  25345.28252633 -.00000061  00000+0 -19602-3 0  9995
2 56076  87.8989 296.6812 0001968  86.8132 273.3223 13.15550985131729
ONEWEB-0636             
1 56077U 23043AH  25345.27460680 -.00000100  00000+0 -30082-3 0  9997
2 56077  87.8985 296.7007 0001881  85.1522 274.9823 13.15550978131705
ONEWEB-0637             
1 56078U 23043AJ  25345.26828057  .00000077  00000+0  17056-3 0  9990
2 56078  87.8990 296.7180 0001598  85.4373 274.6940 13.15550950131725
ONEWEB-0647             
1 56079U 23043AK  25345.26353518  .00000078  00000+0  17373-3 0  9999
2 56079  87.8990 296.7322 0001965  79.7591 280.3761 13.15549143131716
ONEWEB-0651             
1 56080U 23043AL  25345.25876766  .00000148  00000+0  35896-3 0  9993
2 56080  87.8992 296.7265 0001782  87.6668 272.4666 13.15550701132917
ONEWEB-0718             
1 56081U 23043AM  25344.56951352  .00000131  00000+0  31386-3 0  9994
2 56081  87.8991 296.8445 0001393  64.6864 295.4411 13.15548618131634
ONEWEB-0561             
1 56710U 23068A   25344.63911119 -.00000220  00000+0 -57397-3 0  9996
2 56710  87.9192 312.0528 0002225  90.1656 269.9733 13.20770957124610
ONEWEB-0668             
1 56711U 23068B   25345.26045374  .00000117  00000+0  27202-3 0  9993
2 56711  87.9060 266.1756 0001174  75.7209 284.4052 13.16596248127053
ONEWEB-0676             
1 56712U 23068C   25345.26838140 -.00000040  00000+0 -13804-3 0  9995
2 56712  87.9043 266.1967 0001809  83.8060 276.3277 13.16593149126975
ONEWEB-0677             
1 56713U 23068D   25345.15837773  .00000026  00000+0  33243-4 0  9997
2 56713  87.9204 311.9322 0001821  88.4364 271.6978 13.20771280124985
ONEWEB-0678             
1 56714U 23068E   25345.29839464  .00000046  00000+0  87836-4 0  9991
2 56714  87.8995 296.6746 0002116  76.0263 284.1103 13.15548940124584
ONEWEB-0679             
1 56715U 23068F   25345.22718655  .00000206  00000+0  50429-3 0  9998
2 56715  87.9041 266.1882 0001351  91.2916 268.8370 13.16594336126998
ONEWEB-0680             
1 56716U 23068G   25345.29389109  .00000072  00000+0  14321-3 0  9996
2 56716  87.9222 281.4367 0001185  83.3336 276.7933 13.21825298126275
