[{"OBJECT_NAME":"ONEWEB-0632","OBJECT_ID":"2023-043AD","EPOCH":"2025-12-11T05:33:50.379840","MEAN_MOTION":13.15549491,"ECCENTRICITY":0.0001933,"INCLINATION":87.8987,"RA_OF_ASC_NODE":296.7245,"ARG_OF_PERICENTER":83.4046,"MEAN_ANOMALY":276.7304,"EPHEMERIS_TYPE":0,"CLASSIFICATION_TYPE":"U","NORAD_CAT_ID":56073,"ELEMENT_SET_NO":999,"REV_AT_EPOCH":13171,"BSTAR":0.00018724113,"MEAN_MOTION_DOT":8.3e-7,"MEAN_MOTION_DDOT":0},{"OBJECT_NAME":"ONEWEB-0633","OBJECT_ID":"2023-043AE","EPOCH":"2025-12-11T07:14:14.847072","MEAN_MOTION":13.15549011,"ECCENTRICITY":0.00019856,"INCLINATION":87.8984,"RA_OF_ASC_NODE":296.6738,"ARG_OF_PERICENTER":68.0269,"MEAN_ANOMALY":292.1072,"EPHEMERIS_TYPE":0,"CLASSIFICATION_TYPE":"U","NORAD_CAT_ID":56074,"ELEMENT_SET_NO":999,"REV_AT_EPOCH":13170,"BSTAR":0.00025152381,"MEAN_MOTION_DOT":1.08e-6,"MEAN_MOTION_DDOT":0},{"OBJECT_NAME":"ONEWEB-0634","OBJECT_ID":"2023-043AF","EPOCH":"2025-12-11T06:53:42.651744","MEAN_MOTION":13.15549636,"ECCENTRICITY":0.0001536,"INCLINATION":87.8995,"RA_OF_ASC_NODE":296.7262,"ARG_OF_PERICENTER":72.9482,"MEAN_ANOMALY":287.1817,"EPHEMERIS_TYPE":0,"CLASSIFICATION_TYPE":"U","NORAD_CAT_ID":56075,"ELEMENT_SET_NO":999,"REV_AT_EPOCH":13169,"BSTAR":-0.00016078726,"MEAN_MOTION_DOT":-4.8e-7,"MEAN_MOTION_DDOT":0},{"OBJECT_NAME":"ONEWEB-0635","OBJECT_ID":"2023-043AG","EPOCH":"2025-12-11T06:46:50.274912","MEAN_MOTION":13.15550985,"ECCENTRICITY":0.00019685,"INCLINATION":87.8989,"RA_OF_ASC_NODE":296.6812,"ARG_OF_PERICENTER":86.8132,"MEAN_ANOMALY":273.3223,"EPHEMERIS_TYPE":0,"CLASSIFICATION_TYPE":"U","NORAD_CAT_ID":56076,"ELEMENT_SET_NO":999,"REV_AT_EPOCH":13172,"BSTAR":-0.00019601567,"MEAN_MOTION_DOT":-6.1e-7,"MEAN_MOTION_DDOT":0},{"OBJECT_NAME":"ONEWEB-0636","OBJECT_ID":"2023-043AH","EPOCH":"2025-12-11T06:35:26.027520","MEAN_MOTION":13.15550978,"ECCENTRICITY":0.00018819,"INCLINATION":87.8985,"RA_OF_ASC_NODE":296.7007,"ARG_OF_PERICENTER":85.1522,"MEAN_ANOMALY":274.9823,"EPHEMERIS_TYPE":0,"CLASSIFICATION_TYPE":"U","NORAD_CAT_ID":56077,"ELEMENT_SET_NO":999,"REV_AT_EPOCH":13170,"BSTAR":-0.00030081591,"MEAN_MOTION_DOT":-1.0e-6,"MEAN_MOTION_DDOT":0},{"OBJECT_NAME":"ONEWEB-0637","OBJECT_ID":"2023-043AJ","EPOCH":"2025-12-11T06:26:19.441248","MEAN_MOTION":13.1555095,"ECCENTRICITY":0.00015984,"INCLINATION":87.899,"RA_OF_ASC_NODE":296.718,"ARG_OF_PERICENTER":85.4373,"MEAN_ANOMALY":274.694,"EPHEMERIS_TYPE":0,"CLASSIFICATION_TYPE":"U","NORAD_CAT_ID":56078,"ELEMENT_SET_NO":999,"REV_AT_EPOCH":13172,"BSTAR":0.00017055542,"MEAN_MOTION_DOT":7.7e-7,"MEAN_MOTION_DDOT":0},{"OBJECT_NAME":"ONEWEB-0647","OBJECT_ID":"2023-043AK","EPOCH":"2025-12-11T06:19:29.439552","MEAN_MOTION":13.15549143,"ECCENTRICITY":0.00019656,"INCLINATION":87.899,"RA_OF_ASC_NODE":296.7322,"ARG_OF_PERICENTER":79.7591,"MEAN_ANOMALY":280.3761,"EPHEMERIS_TYPE":0,"CLASSIFICATION_TYPE":"U","NORAD_CAT_ID":56079,"ELEMENT_SET_NO":999,"REV_AT_EPOCH":13171,"BSTAR":0.00017373246,"MEAN_MOTION_DOT":7.8e-7,"MEAN_MOTION_DDOT":0},{"OBJECT_NAME":"ONEWEB-0651","OBJECT_ID":"2023-043AL","EPOCH":"2025-12-11T06:12:37.525824","MEAN_MOTION":13.15550701,"ECCENTRICITY":0.00017825,"INCLINATION":87.8992,"RA_OF_ASC_NODE":296.7265,"ARG_OF_PERICENTER":87.6668,"MEAN_ANOMALY":272.4666,"EPHEMERIS_TYPE":0,"CLASSIFICATION_TYPE":"U","NORAD_CAT_ID":56080,"ELEMENT_SET_NO":999,"REV_AT_EPOCH":13291,"BSTAR":0.00035895928,"MEAN_MOTION_DOT":1.48e-6,"MEAN_MOTION_DDOT":0},{"OBJECT_NAME":"ONEWEB-0718","OBJECT_ID":"2023-043AM","EPOCH":"2025-12-10T13:40:05.968128","MEAN_MOTION":13.15548618,"ECCENTRICITY":0.0001393,"INCLINATION":87.8991,"RA_OF_ASC_NODE":296.8445,"ARG_OF_PERICENTER":64.6864,"MEAN_ANOMALY":295.4411,"EPHEMERIS_TYPE":0,"CLASSIFICATION_TYPE":"U","NORAD_CAT_ID":56081,"ELEMENT_SET_NO":999,"REV_AT_EPOCH":13163,"BSTAR":0.00031386,"MEAN_MOTION_DOT":1.31e-6,"MEAN_MOTION_DDOT":0},{"OBJECT_NAME":"ONEWEB-0561","OBJECT_ID":"2023-068A","EPOCH":"2025-12-10T15:20:19.206816","MEAN_MOTION":13.20770957,"ECCENTRICITY":0.00022258,"INCLINATION":87.9192,"RA_OF_ASC_NODE":312.0528,"ARG_OF_PERICENTER":90.1656,"MEAN_ANOMALY":269.9733,"EPHEMERIS_TYPE":0,"CLASSIFICATION_TYPE":"U","NORAD_CAT_ID":56710,"ELEMENT_SET_NO":999,"REV_AT_EPOCH":12461,"BSTAR":-0.00057397059,"MEAN_MOTION_DOT":-2.2e-6,"MEAN_MOTION_DDOT":0},{"OBJECT_NAME":"ONEWEB-0668","OBJECT_ID":"2023-068B","EPOCH":"2025-12-11T06:15:03.203136","MEAN_MOTION":13.16596248,"ECCENTRICITY":0.00011746,"INCLINATION":87.906,"RA_OF_ASC_NODE":266.1756,"ARG_OF_PERICENTER":75.7209,"MEAN_ANOMALY":284.4052,"EPHEMERIS_TYPE":0,"CLASSIFICATION_TYPE":"U","NORAD_CAT_ID":56711,"ELEMENT_SET_NO":999,"REV_AT_EPOCH":12705,"BSTAR":0.00027202418,"MEAN_MOTION_DOT":1.17e-6,"MEAN_MOTION_DDOT":0},{"OBJECT_NAME":"ONEWEB-0676","OBJECT_ID":"2023-068C","EPOCH":"2025-12-11T06:26:28.152960","MEAN_MOTION":13.16593149,"ECCENTRICITY":0.00018091,"INCLINATION":87.9043,"RA_OF_ASC_NODE":266.1967,"ARG_OF_PERICENTER":83.806,"MEAN_ANOMALY":276.3277,"EPHEMERIS_TYPE":0,"CLASSIFICATION_TYPE":"U","NORAD_CAT_ID":56712,"ELEMENT_SET_NO":999,"REV_AT_EPOCH":12697,"BSTAR":-0.00013804491,"MEAN_MOTION_DOT":-4.0e-7,"MEAN_MOTION_DDOT":0},{"OBJECT_NAME":"ONEWEB-0677","OBJECT_ID":"2023-068D","EPOCH":"2025-12-11T03:48:03.835872","MEAN_MOTION":13.2077128,"ECCENTRICITY":0.00018213,"INCLINATION":87.9204,"RA_OF_ASC_NODE":311.9322,"ARG_OF_PERICENTER":88.4364,"MEAN_ANOMALY":271.6978,"EPHEMERIS_TYPE":0,"CLASSIFICATION_TYPE":"U","NORAD_CAT_ID":56713,"ELEMENT_SET_NO":999,"REV_AT_EPOCH":12498,"BSTAR":3.3242763e-5,"MEAN_MOTION_DOT":2.6e-7,"MEAN_MOTION_DDOT":0},{"OBJECT_NAME":"ONEWEB-0678","OBJECT_ID":"2023-068E","EPOCH":"2025-12-11T07:09:41.296896","MEAN_MOTION":13.1554894,"ECCENTRICITY":0.00021164,"INCLINATION":87.8995,"RA_OF_ASC_NODE":296.6746,"ARG_OF_PERICENTER":76.0263,"MEAN_ANOMALY":284.1103,"EPHEMERIS_TYPE":0,"CLASSIFICATION_TYPE":"U","NORAD_CAT_ID":56714,"ELEMENT_SET_NO":999,"REV_AT_EPOCH":12458,"BSTAR":8.7836342e-5,"MEAN_MOTION_DOT":4.6e-7,"MEAN_MOTION_DDOT":0},{"OBJECT_NAME":"ONEWEB-0679","OBJECT_ID":"2023-068F","EPOCH":"2025-12-11T05:27:08.917920","MEAN_MOTION":13.16594336,"ECCENTRICITY":0.00013516,"INCLINATION":87.9041,"RA_OF_ASC_NODE":266.1882,"ARG_OF_PERICENTER":91.2916,"MEAN_ANOMALY":268.837,"EPHEMERIS_TYPE":0,"CLASSIFICATION_TYPE":"U","NORAD_CAT_ID":56715,"ELEMENT_SET_NO":999,"REV_AT_EPOCH":12699,"BSTAR":0.00050428621,"MEAN_MOTION_DOT":2.06e-6,"MEAN_MOTION_DDOT":0},{"OBJECT_NAME":"ONEWEB-0680","OBJECT_ID":"2023-068G","EPOCH":"2025-12-11T07:03:12.190176","MEAN_MOTION":13.21825298,"ECCENTRICITY":0.0001185,"INCLINATION":87.9222,"RA_OF_ASC_NODE":281.4367,"ARG_OF_PERICENTER":83.3336,"MEAN_ANOMALY":276.7933,"EPHEMERIS_TYPE":0,"CLASSIFICATION_TYPE":"U","NORAD_CAT_ID":56716,"ELEMENT_SET_NO":999,"REV_AT_EPOCH":12627,"BSTAR":0.00014320828,"MEAN_MOTION_DOT":7.2e-7,"MEAN_MOTION_DDOT":0}]
